OBJECT_NAME,OBJECT_ID,EPOCH,MEAN_MOTION,ECCENTRICITY,INCLINATION,RA_OF_ASC_NODE,ARG_OF_PERICENTER,MEAN_ANOMALY,EPHEMERIS_TYPE,CLASSIFICATION_TYPE,NORAD_CAT_ID,ELEMENT_SET_NO,REV_AT_EPOCH,BSTAR,MEAN_MOTION_DOT,MEAN_MOTION_DDOT
STARLINK-34833,2025-176W,2026-06-26T21:56:11.986368,15.34384509,.00012407,53.1619,3.9394,88.7381,271.3764,0,U,65218,999,4986,.72480251E-3,.24179E-3,0
STARLINK-34960,2025-176X,2026-06-26T19:15:52.410816,15.34384248,.00007905,53.1591,4.6689,87.1545,272.9548,0,U,65219,999,4984,.63430126E-3,.21104E-3,0
STARLINK-34603,2025-176Y,2026-06-26T22:44:32.907840,15.34382184,.00009482,53.1594,3.4436,73.6984,286.4123,0,U,65220,999,4987,.935768E-3,.31354E-3,0
STARLINK-34974,2025-176Z,2026-06-26T22:59:41.883360,15.34382553,.00010348,53.1586,3.5063,78.6461,281.4657,0,U,65221,999,4987,.97703944E-3,.32761E-3,0
STARLINK-34999,2025-176AA,2026-06-26T19:12:50.653728,15.34389574,.0001005,53.1593,4.6564,89.2144,270.8974,0,U,65222,999,4984,.11288027E-2,.37943E-3,0
STARLINK-34996,2025-176AB,2026-06-26T19:09:48.772224,15.34395078,.00008502,53.1603,4.6413,82.2914,277.8185,0,U,65223,999,4984,.69640868E-3,.23222E-3,0
STARLINK-34975,2025-176AC,2026-06-26T21:47:06.230400,15.34395813,.00005101,53.1599,3.9027,87.4145,272.6916,0,U,65224,999,4986,.96452962E-3,.32348E-3,0
STARLINK-34257,2025-176AD,2026-06-26T21:53:10.403808,15.34382419,.00011461,53.1592,3.9250,63.8674,296.2446,0,U,65225,999,4980,.11419231E-2,.38381E-3,0
STARLINK-34842,2025-179A,2026-06-26T16:30:16.201728,15.05656861,.0001911,97.3069,219.1476,93.5014,266.6432,0,U,65235,999,4828,.15490039E-3,.2179E-4,0
STARLINK-34938,2025-179B,2026-06-26T20:33:30.009312,15.05658903,.00015202,97.3102,219.2273,109.7351,250.4041,0,U,65236,999,4829,.22434105E-3,.3182E-4,0
STARLINK-34958,2025-179C,2026-06-26T20:57:25.136640,15.05662837,.00017532,97.3093,219.2022,119.4425,240.6978,0,U,65237,999,4839,.2453464E-3,.3486E-4,0
STARLINK-34818,2025-179D,2026-06-26T20:05:35.671488,15.05657343,.00020073,97.3064,219.2541,113.4009,246.7430,0,U,65238,999,4797,.49068238E-3,.7032E-4,0
STARLINK-34964,2025-179E,2026-06-26T16:22:16.750848,15.05661007,.00018694,97.3097,219.0007,127.6455,232.4942,0,U,65239,999,4821,.25710337E-3,.3656E-4,0
STARLINK-34953,2025-179F,2026-06-26T20:41:28.226400,15.05661622,.00016724,97.3131,219.2198,154.9198,205.2111,0,U,65240,999,4840,.36923258E-3,.5276E-4,0
STARLINK-34969,2025-179G,2026-06-26T20:21:32.379552,15.05658364,.00014083,97.3073,219.2358,98.2529,261.8858,0,U,65241,999,4824,.460303E-3,.6592E-4,0
STARLINK-34963,2025-179H,2026-06-26T19:53:38.035680,15.05660908,.00021147,97.3068,219.2659,101.9790,258.1675,0,U,65242,999,4839,.2852856E-3,.4063E-4,0
STARLINK-34982,2025-179J,2026-06-26T20:49:26.827104,15.05660595,.00024316,97.3110,219.2107,118.6618,241.4855,0,U,65243,999,4840,.37354768E-3,.5339E-4,0
STARLINK-34990,2025-179K,2026-06-26T20:13:34.022496,15.05661601,.00019736,97.3078,219.2441,115.2374,244.9059,0,U,65244,999,4830,.61762176E-3,.8869E-4,0
STARLINK-34977,2025-179L,2026-06-26T20:37:29.330400,15.05656976,.00016108,97.3099,219.2230,88.8487,271.2925,0,U,65245,999,4821,.25079099E-3,.3564E-4,0
STARLINK-34959,2025-179M,2026-06-26T16:26:14.392320,15.05676628,.0001479,97.3134,219.0073,108.7099,251.4290,0,U,65246,999,4822,.323403E-3,.4616E-4,0
STARLINK-34923,2025-179N,2026-06-26T16:18:17.339904,15.05663702,.00017121,97.3096,219.0074,107.4787,252.6627,0,U,65247,999,4826,.34796497E-3,.4969E-4,0
STARLINK-34962,2025-179P,2026-06-26T20:25:31.728288,15.05655104,.00017847,97.3079,219.2358,127.4840,232.6550,0,U,65248,999,4825,.28364945E-3,.4039E-4,0
STARLINK-34925,2025-179Q,2026-06-26T19:57:37.094112,15.05659093,.00017248,97.3054,219.2619,98.7551,261.3872,0,U,65249,999,4824,.43342272E-3,.6204E-4,0
STARLINK-34973,2025-179R,2026-06-26T16:34:15.494304,15.05655547,.00013164,97.3090,219.1486,95.9423,264.1954,0,U,65250,999,4821,.15675079E-3,.2206E-4,0
STARLINK-34989,2025-179S,2026-06-26T19:49:38.743968,15.05653122,.00016371,97.3070,219.2703,121.7417,238.3970,0,U,65251,999,4841,.39192487E-3,.5603E-4,0
STARLINK-34961,2025-179T,2026-06-26T20:17:33.243360,15.05659384,.00018404,97.3069,219.2399,101.5642,258.5792,0,U,65252,999,4825,.52319014E-3,.7502E-4,0
STARLINK-34933,2025-179U,2026-06-26T20:53:25.667808,15.05662793,.00005196,97.3114,219.2070,114.7186,245.4096,0,U,65253,999,4824,.51921528E-3,.7445E-4,0
STARLINK-34979,2025-179V,2026-06-26T21:01:24.239136,15.05659789,.00012708,97.3097,219.2003,158.7146,201.4135,0,U,65254,999,4824,.31417992E-3,.448E-4,0
STARLINK-34987,2025-179W,2026-06-26T09:35:33.603072,15.05651105,.0000144,97.3107,218.7724,178.8760,181.2468,0,U,65255,999,4816,.38712E-3,.5533E-4,0
STARLINK-34971,2025-179X,2026-06-26T20:09:36.157248,15.05662997,.00020191,97.3106,219.2491,112.8874,247.2567,0,U,65256,999,4797,.43034721E-3,.616E-4,0
