STARLINK-34833          
1 65218U 25176W   26177.91402762  .00024179  00000+0  72480-3 0  9993
2 65218  53.1619   3.9394 0001240  88.7381 271.3764 15.34384509 49868
STARLINK-34960          
1 65219U 25176X   26177.80268994  .00021104  00000+0  63430-3 0  9999
2 65219  53.1591   4.6689 0000790  87.1545 272.9548 15.34384248 49842
STARLINK-34603          
1 65220U 25176Y   26177.94760310  .00031354  00000+0  93577-3 0  9998
2 65220  53.1594   3.4436 0000948  73.6984 286.4123 15.34382184 49875
STARLINK-34974          
1 65221U 25176Z   26177.95812365  .00032761  00000+0  97704-3 0  9997
2 65221  53.1586   3.5063 0001034  78.6461 281.4657 15.34382553 49873
STARLINK-34999          
1 65222U 25176AA  26177.80058627  .00037943  00000+0  11288-2 0  9994
2 65222  53.1593   4.6564 0001005  89.2144 270.8974 15.34389574 49845
STARLINK-34996          
1 65223U 25176AB  26177.79848116  .00023222  00000+0  69641-3 0  9995
2 65223  53.1603   4.6413 0000850  82.2914 277.8185 15.34395078 49843
STARLINK-34975          
1 65224U 25176AC  26177.90771100  .00032348  00000+0  96453-3 0  9997
2 65224  53.1599   3.9027 0000510  87.4145 272.6916 15.34395813 49861
STARLINK-34257          
1 65225U 25176AD  26177.91192597  .00038381  00000+0  11419-2 0  9997
2 65225  53.1592   3.9250 0001146  63.8674 296.2446 15.34382419 49806
STARLINK-34842          
1 65235U 25179A   26177.68768752  .00002179  00000+0  15490-3 0  9997
2 65235  97.3069 219.1476 0001911  93.5014 266.6432 15.05656861 48285
STARLINK-34938          
1 65236U 25179B   26177.85659733  .00003182  00000+0  22434-3 0  9996
2 65236  97.3102 219.2273 0001520 109.7351 250.4041 15.05658903 48297
STARLINK-34958          
1 65237U 25179C   26177.87320760  .00003486  00000+0  24535-3 0  9995
2 65237  97.3093 219.2022 0001753 119.4425 240.6978 15.05662837 48399
STARLINK-34818          
1 65238U 25179D   26177.83721842  .00007032  00000+0  49068-3 0  9997
2 65238  97.3064 219.2541 0002007 113.4009 246.7430 15.05657343 47978
STARLINK-34964          
1 65239U 25179E   26177.68213832  .00003656  00000+0  25710-3 0  9992
2 65239  97.3097 219.0007 0001869 127.6455 232.4942 15.05661007 48217
STARLINK-34953          
1 65240U 25179F   26177.86213225  .00005276  00000+0  36923-3 0  9998
2 65240  97.3131 219.2198 0001672 154.9198 205.2111 15.05661622 48400
STARLINK-34969          
1 65241U 25179G   26177.84829143  .00006592  00000+0  46030-3 0  9991
2 65241  97.3073 219.2358 0001408  98.2529 261.8858 15.05658364 48246
STARLINK-34963          
1 65242U 25179H   26177.82891245  .00004063  00000+0  28529-3 0  9996
2 65242  97.3068 219.2659 0002114 101.9790 258.1675 15.05660908 48391
STARLINK-34982          
1 65243U 25179J   26177.86767161  .00005339  00000+0  37355-3 0  9994
2 65243  97.3110 219.2107 0002431 118.6618 241.4855 15.05660595 48403
STARLINK-34990          
1 65244U 25179K   26177.84275489  .00008869  00000+0  61762-3 0  9990
2 65244  97.3078 219.2441 0001973 115.2374 244.9059 15.05661601 48302
STARLINK-34977          
1 65245U 25179L   26177.85936725  .00003564  00000+0  25079-3 0  9997
2 65245  97.3099 219.2230 0001610  88.8487 271.2925 15.05656976 48214
STARLINK-34959          
1 65246U 25179M   26177.68488880  .00004616  00000+0  32340-3 0  9991
2 65246  97.3134 219.0073 0001479 108.7099 251.4290 15.05676628 48224
STARLINK-34923          
1 65247U 25179N   26177.67936736  .00004969  00000+0  34796-3 0  9997
2 65247  97.3096 219.0074 0001712 107.4787 252.6627 15.05663702 48263
STARLINK-34962          
1 65248U 25179P   26177.85106167  .00004039  00000+0  28365-3 0  9998
2 65248  97.3079 219.2358 0001784 127.4840 232.6550 15.05655104 48252
STARLINK-34925          
1 65249U 25179Q   26177.83167933  .00006204  00000+0  43342-3 0  9993
2 65249  97.3054 219.2619 0001724  98.7551 261.3872 15.05659093 48245
STARLINK-34973          
1 65250U 25179R   26177.69045711  .00002206  00000+0  15675-3 0  9994
2 65250  97.3090 219.1486 0001316  95.9423 264.1954 15.05655547 48211
STARLINK-34989          
1 65251U 25179S   26177.82614287  .00005603  00000+0  39192-3 0  9994
2 65251  97.3070 219.2703 0001637 121.7417 238.3970 15.05653122 48410
STARLINK-34961          
1 65252U 25179T   26177.84552365  .00007502  00000+0  52319-3 0  9991
2 65252  97.3069 219.2399 0001840 101.5642 258.5792 15.05659384 48256
STARLINK-34933          
1 65253U 25179U   26177.87043597  .00007445  00000+0  51922-3 0  9992
2 65253  97.3114 219.2070 0000519 114.7186 245.4096 15.05662793 48244
STARLINK-34979          
1 65254U 25179V   26177.87597499  .00004480  00000+0  31418-3 0  9992
2 65254  97.3097 219.2003 0001270 158.7146 201.4135 15.05659789 48247
STARLINK-34987          
1 65255U 25179W   26177.39969448  .00005533  00000+0  38712-3 0  9991
2 65255  97.3107 218.7724 0000144 178.8760 181.2468 15.05651105 48167
STARLINK-34971          
1 65256U 25179X   26177.84000182  .00006160  00000+0  43035-3 0  9994
2 65256  97.3106 219.2491 0002019 112.8874 247.2567 15.05662997 47973
